[{"OBJECT_NAME":"ONEWEB-0116","OBJECT_ID":"2021-025E","EPOCH":"2026-04-06T21:36:48.326976","MEAN_MOTION":13.13468181,"ECCENTRICITY":0.0001783,"INCLINATION":87.9005,"RA_OF_ASC_NODE":334.407,"ARG_OF_PERICENTER":85.8852,"MEAN_ANOMALY":274.2481,"EPHEMERIS_TYPE":0,"CLASSIFICATION_TYPE":"U","NORAD_CAT_ID":48046,"ELEMENT_SET_NO":999,"REV_AT_EPOCH":24429,"BSTAR":-0.00023316000000000002,"MEAN_MOTION_DOT":-7.2e-07,"MEAN_MOTION_DDOT":0.0},{"OBJECT_NAME":"ONEWEB-0150","OBJECT_ID":"2021-025F","EPOCH":"2026-04-06T22:52:23.096640","MEAN_MOTION":13.13468679,"ECCENTRICITY":0.0001491,"INCLINATION":87.9008,"RA_OF_ASC_NODE":334.3942,"ARG_OF_PERICENTER":80.586,"MEAN_ANOMALY":279.5437,"EPHEMERIS_TYPE":0,"CLASSIFICATION_TYPE":"U","NORAD_CAT_ID":48047,"ELEMENT_SET_NO":999,"REV_AT_EPOCH":24419,"BSTAR":0.0007919800000000001,"MEAN_MOTION_DOT":3.02e-06,"MEAN_MOTION_DDOT":0.0},{"OBJECT_NAME":"ONEWEB-0107","OBJECT_ID":"2021-025G","EPOCH":"2026-04-06T22:54:49.038336","MEAN_MOTION":13.13469465,"ECCENTRICITY":0.0001659,"INCLINATION":87.9013,"RA_OF_ASC_NODE":334.3891,"ARG_OF_PERICENTER":72.874,"MEAN_ANOMALY":287.2571,"EPHEMERIS_TYPE":0,"CLASSIFICATION_TYPE":"U","NORAD_CAT_ID":48048,"ELEMENT_SET_NO":999,"REV_AT_EPOCH":24417,"BSTAR":0.00026246000000000006,"MEAN_MOTION_DOT":1.09e-06,"MEAN_MOTION_DDOT":0.0},{"OBJECT_NAME":"ONEWEB-0101","OBJECT_ID":"2021-025H","EPOCH":"2026-04-06T22:01:10.619328","MEAN_MOTION":13.13467964,"ECCENTRICITY":0.0001843,"INCLINATION":87.8995,"RA_OF_ASC_NODE":334.4192,"ARG_OF_PERICENTER":77.7494,"MEAN_ANOMALY":282.3841,"EPHEMERIS_TYPE":0,"CLASSIFICATION_TYPE":"U","NORAD_CAT_ID":48049,"ELEMENT_SET_NO":999,"REV_AT_EPOCH":24414,"BSTAR":-0.0008816500000000001,"MEAN_MOTION_DOT":-3.09e-06,"MEAN_MOTION_DDOT":0.0},{"OBJECT_NAME":"ONEWEB-0113","OBJECT_ID":"2021-025J","EPOCH":"2026-04-06T21:21:22.547520","MEAN_MOTION":13.1394955,"ECCENTRICITY":0.0001769,"INCLINATION":87.9002,"RA_OF_ASC_NODE":334.3418,"ARG_OF_PERICENTER":93.631,"MEAN_ANOMALY":266.5021,"EPHEMERIS_TYPE":0,"CLASSIFICATION_TYPE":"U","NORAD_CAT_ID":48050,"ELEMENT_SET_NO":999,"REV_AT_EPOCH":24424,"BSTAR":0.00017501,"MEAN_MOTION_DOT":7.7e-07,"MEAN_MOTION_DDOT":0.0},{"OBJECT_NAME":"ONEWEB-0112","OBJECT_ID":"2021-025K","EPOCH":"2026-04-06T21:12:26.098560","MEAN_MOTION":13.13468582,"ECCENTRICITY":0.0001875,"INCLINATION":87.9007,"RA_OF_ASC_NODE":334.4009,"ARG_OF_PERICENTER":74.9906,"MEAN_ANOMALY":285.143,"EPHEMERIS_TYPE":0,"CLASSIFICATION_TYPE":"U","NORAD_CAT_ID":48051,"ELEMENT_SET_NO":999,"REV_AT_EPOCH":24423,"BSTAR":0.0007518000000000001,"MEAN_MOTION_DOT":2.87e-06,"MEAN_MOTION_DDOT":0.0},{"OBJECT_NAME":"ONEWEB-0156","OBJECT_ID":"2021-025L","EPOCH":"2026-04-06T21:24:37.331136","MEAN_MOTION":13.1346873,"ECCENTRICITY":0.0001659,"INCLINATION":87.9004,"RA_OF_ASC_NODE":334.41,"ARG_OF_PERICENTER":78.0152,"MEAN_ANOMALY":282.1164,"EPHEMERIS_TYPE":0,"CLASSIFICATION_TYPE":"U","NORAD_CAT_ID":48052,"ELEMENT_SET_NO":999,"REV_AT_EPOCH":24421,"BSTAR":0.00052772,"MEAN_MOTION_DOT":2.05e-06,"MEAN_MOTION_DDOT":0.0},{"OBJECT_NAME":"ONEWEB-0161","OBJECT_ID":"2021-025M","EPOCH":"2026-04-06T22:37:45.617376","MEAN_MOTION":13.13469601,"ECCENTRICITY":0.000164,"INCLINATION":87.8994,"RA_OF_ASC_NODE":334.4065,"ARG_OF_PERICENTER":75.586,"MEAN_ANOMALY":284.5451,"EPHEMERIS_TYPE":0,"CLASSIFICATION_TYPE":"U","NORAD_CAT_ID":48053,"ELEMENT_SET_NO":999,"REV_AT_EPOCH":24415,"BSTAR":0.00059815,"MEAN_MOTION_DOT":2.31e-06,"MEAN_MOTION_DDOT":0.0},{"OBJECT_NAME":"ONEWEB-0158","OBJECT_ID":"2021-025N","EPOCH":"2026-04-06T21:39:14.451840","MEAN_MOTION":13.13468342,"ECCENTRICITY":0.0001983,"INCLINATION":87.9005,"RA_OF_ASC_NODE":334.4077,"ARG_OF_PERICENTER":88.0756,"MEAN_ANOMALY":272.06,"EPHEMERIS_TYPE":0,"CLASSIFICATION_TYPE":"U","NORAD_CAT_ID":48054,"ELEMENT_SET_NO":999,"REV_AT_EPOCH":24427,"BSTAR":-0.0002428,"MEAN_MOTION_DOT":-7.6e-07,"MEAN_MOTION_DDOT":0.0},{"OBJECT_NAME":"ONEWEB-0157","OBJECT_ID":"2021-025P","EPOCH":"2026-04-06T16:46:42.747168","MEAN_MOTION":13.1346833,"ECCENTRICITY":0.0001738,"INCLINATION":87.9003,"RA_OF_ASC_NODE":334.4523,"ARG_OF_PERICENTER":67.5763,"MEAN_ANOMALY":292.555,"EPHEMERIS_TYPE":0,"CLASSIFICATION_TYPE":"U","NORAD_CAT_ID":48055,"ELEMENT_SET_NO":999,"REV_AT_EPOCH":24418,"BSTAR":-0.00020993999999999999,"MEAN_MOTION_DOT":-6.4e-07,"MEAN_MOTION_DDOT":0.0},{"OBJECT_NAME":"ONEWEB-0162","OBJECT_ID":"2021-025Q","EPOCH":"2026-04-06T21:41:30.118848","MEAN_MOTION":13.13469228,"ECCENTRICITY":0.0001535,"INCLINATION":87.9004,"RA_OF_ASC_NODE":334.4159,"ARG_OF_PERICENTER":81.1869,"MEAN_ANOMALY":278.9434,"EPHEMERIS_TYPE":0,"CLASSIFICATION_TYPE":"U","NORAD_CAT_ID":48056,"ELEMENT_SET_NO":999,"REV_AT_EPOCH":24418,"BSTAR":-0.00070899,"MEAN_MOTION_DOT":-2.46e-06,"MEAN_MOTION_DDOT":0.0},{"OBJECT_NAME":"ONEWEB-0155","OBJECT_ID":"2021-025R","EPOCH":"2026-04-06T21:51:25.708608","MEAN_MOTION":13.13468326,"ECCENTRICITY":0.0001838,"INCLINATION":87.8997,"RA_OF_ASC_NODE":334.4118,"ARG_OF_PERICENTER":76.4546,"MEAN_ANOMALY":283.6788,"EPHEMERIS_TYPE":0,"CLASSIFICATION_TYPE":"U","NORAD_CAT_ID":48057,"ELEMENT_SET_NO":999,"REV_AT_EPOCH":24432,"BSTAR":-0.00070997,"MEAN_MOTION_DOT":-2.47e-06,"MEAN_MOTION_DDOT":0.0},{"OBJECT_NAME":"ONEWEB-0149","OBJECT_ID":"2021-025S","EPOCH":"2026-04-06T22:23:07.889280","MEAN_MOTION":13.13469889,"ECCENTRICITY":0.0001491,"INCLINATION":87.9004,"RA_OF_ASC_NODE":334.4061,"ARG_OF_PERICENTER":81.9302,"MEAN_ANOMALY":278.1996,"EPHEMERIS_TYPE":0,"CLASSIFICATION_TYPE":"U","NORAD_CAT_ID":48058,"ELEMENT_SET_NO":999,"REV_AT_EPOCH":24413,"BSTAR":-0.00020801,"MEAN_MOTION_DOT":-6.3e-07,"MEAN_MOTION_DDOT":0.0},{"OBJECT_NAME":"ONEWEB-0148","OBJECT_ID":"2021-025T","EPOCH":"2026-04-06T21:29:30.097536","MEAN_MOTION":13.13469047,"ECCENTRICITY":0.0001132,"INCLINATION":87.8997,"RA_OF_ASC_NODE":334.4263,"ARG_OF_PERICENTER":75.0489,"MEAN_ANOMALY":285.0765,"EPHEMERIS_TYPE":0,"CLASSIFICATION_TYPE":"U","NORAD_CAT_ID":48059,"ELEMENT_SET_NO":999,"REV_AT_EPOCH":24425,"BSTAR":3.0795e-05,"MEAN_MOTION_DOT":2.4e-07,"MEAN_MOTION_DDOT":0.0},{"OBJECT_NAME":"ONEWEB-0160","OBJECT_ID":"2021-025U","EPOCH":"2026-04-06T21:53:52.562688","MEAN_MOTION":13.13469316,"ECCENTRICITY":0.0002094,"INCLINATION":87.8999,"RA_OF_ASC_NODE":334.4186,"ARG_OF_PERICENTER":101.5392,"MEAN_ANOMALY":258.5972,"EPHEMERIS_TYPE":0,"CLASSIFICATION_TYPE":"U","NORAD_CAT_ID":48060,"ELEMENT_SET_NO":999,"REV_AT_EPOCH":24420,"BSTAR":-0.0010613,"MEAN_MOTION_DOT":-3.75e-06,"MEAN_MOTION_DDOT":0.0},{"OBJECT_NAME":"ONEWEB-0163","OBJECT_ID":"2021-025V","EPOCH":"2026-04-06T21:31:55.773984","MEAN_MOTION":13.13468054,"ECCENTRICITY":0.000174,"INCLINATION":87.9001,"RA_OF_ASC_NODE":334.4151,"ARG_OF_PERICENTER":71.6715,"MEAN_ANOMALY":288.4604,"EPHEMERIS_TYPE":0,"CLASSIFICATION_TYPE":"U","NORAD_CAT_ID":48061,"ELEMENT_SET_NO":999,"REV_AT_EPOCH":24432,"BSTAR":5.460600000000001e-06,"MEAN_MOTION_DOT":1.5e-07,"MEAN_MOTION_DDOT":0.0}]