ONEWEB-0116             
1 48046U 21025E   26096.90055934 -.00000072  00000+0 -23316-3 0  9998
2 48046  87.9005 334.4070 0001783  85.8852 274.2481 13.13468181244294
ONEWEB-0150             
1 48047U 21025F   26096.95304510  .00000302  00000+0  79198-3 0  9994
2 48047  87.9008 334.3942 0001491  80.5860 279.5437 13.13468679244192
ONEWEB-0107             
1 48048U 21025G   26096.95473424  .00000109  00000+0  26246-3 0  9997
2 48048  87.9013 334.3891 0001659  72.8740 287.2571 13.13469465244176
ONEWEB-0101             
1 48049U 21025H   26096.91748402 -.00000309  00000+0 -88165-3 0  9997
2 48049  87.8995 334.4192 0001843  77.7494 282.3841 13.13467964244140
ONEWEB-0113             
1 48050U 21025J   26096.88984430  .00000077  00000+0  17501-3 0  9994
2 48050  87.9002 334.3418 0001769  93.6310 266.5021 13.13949550244244
ONEWEB-0112             
1 48051U 21025K   26096.88363540  .00000287  00000+0  75180-3 0  9998
2 48051  87.9007 334.4009 0001875  74.9906 285.1430 13.13468582244239
ONEWEB-0156             
1 48052U 21025L   26096.89209874  .00000205  00000+0  52772-3 0  9991
2 48052  87.9004 334.4100 0001659  78.0152 282.1164 13.13468730244211
ONEWEB-0161             
1 48053U 21025M   26096.94288909  .00000231  00000+0  59815-3 0  9998
2 48053  87.8994 334.4065 0001640  75.5860 284.5451 13.13469601244153
ONEWEB-0158             
1 48054U 21025N   26096.90225060 -.00000076  00000+0 -24280-3 0  9991
2 48054  87.9005 334.4077 0001983  88.0756 272.0600 13.13468342244276
ONEWEB-0157             
1 48055U 21025P   26096.69910587 -.00000064  00000+0 -20994-3 0  9998
2 48055  87.9003 334.4523 0001738  67.5763 292.5550 13.13468330244187
ONEWEB-0162             
1 48056U 21025Q   26096.90382082 -.00000246  00000+0 -70899-3 0  9997
2 48056  87.9004 334.4159 0001535  81.1869 278.9434 13.13469228244184
ONEWEB-0155             
1 48057U 21025R   26096.91071422 -.00000247  00000+0 -70997-3 0  9992
2 48057  87.8997 334.4118 0001838  76.4546 283.6788 13.13468326244324
ONEWEB-0149             
1 48058U 21025S   26096.93273020 -.00000063  00000+0 -20801-3 0  9998
2 48058  87.9004 334.4061 0001491  81.9302 278.1996 13.13469889244132
ONEWEB-0148             
1 48059U 21025T   26096.89548724  .00000024  00000+0  30795-4 0  9999
2 48059  87.8997 334.4263 0001132  75.0489 285.0765 13.13469047244259
ONEWEB-0160             
1 48060U 21025U   26096.91241392 -.00000375  00000+0 -10613-2 0  9991
2 48060  87.8999 334.4186 0002094 101.5392 258.5972 13.13469316244202
ONEWEB-0163             
1 48061U 21025V   26096.89717331  .00000015  00000+0  54606-5 0  9992
2 48061  87.9001 334.4151 0001740  71.6715 288.4604 13.13468054244328
